{
  "type" : "FeatureCollection",
  "features" : [{"type":"Feature","id":1,"geometry":{"type":"Point","coordinates":[35.257244645671911,32.115361166562728]},"properties":{"OBJECTID":1,"Name":"Za'tara (Tappuah)","name_ar":"زعترة","Type":"checkpoints","Status_Open":"Open","Status_Closed":"Closed"}},{"type":"Feature","id":2,"geometry":{"type":"Point","coordinates":[35.317732000517772,32.199780000103388]},"properties":{"OBJECTID":2,"Name":"Beit Furik","name_ar":"بيت فوريك","Type":"checkpoints","Status_Open":"Open","Status_Closed":"Closed"}},{"type":"Feature","id":3,"geometry":{"type":"Point","coordinates":[35.17708200016969,31.882621000397528]},"properties":{"OBJECTID":3,"Name":"Beituniya","name_ar":"الجلزون","Type":"checkpoints","Status_Open":"Open","Status_Closed":"Closed"}},{"type":"Feature","id":4,"geometry":{"type":"Point","coordinates":[35.289561000188804,31.742843000209291]},"properties":{"OBJECTID":4,"Name":"Wadi Nar","name_ar":"حاجز الكونتينر","Type":"checkpoints","Status_Open":"Open","Status_Closed":"Closed"}},{"type":"Feature","id":5,"geometry":{"type":"Point","coordinates":[35.251855000039825,31.827834000207233]},"properties":{"OBJECTID":5,"Name":"Hizma checkpoint","name_ar":"حزما","Type":"checkpoints","Status_Open":"Open","Status_Closed":"Closed"}},{"type":"Feature","id":6,"geometry":{"type":"Point","coordinates":[35.227539000192969,31.862393999542864]},"properties":{"OBJECTID":6,"Name":"Qalandiya","name_ar":"قلنديا","Type":"checkpoints","Status_Open":"Open","Status_Closed":"Closed"}},{"type":"Feature","id":7,"geometry":{"type":"Point","coordinates":[35.17604399981682,31.857087999935477]},"properties":{"OBJECTID":7,"Name":"Al Jib","name_ar":"كفر عقب","Type":"checkpoints","Status_Open":"Open","Status_Closed":"Closed"}},{"type":"Feature","id":8,"geometry":{"type":"Point","coordinates":[35.110207101040807,31.523948072485013]},"properties":{"OBJECTID":8,"Name":"Abed CP","name_ar":"بوابة عبدة","Type":"checkpoints","Status_Open":"Open","Status_Closed":"Closed"}},{"type":"Feature","id":9,"geometry":{"type":"Point","coordinates":[35.100550000553646,31.524670000563901]},"properties":{"OBJECTID":9,"Name":"Mashhad Al Arba’in CP","name_ar":"المنشية","Type":"checkpoints","Status_Open":"Open","Status_Closed":"Closed"}},{"type":"Feature","id":10,"geometry":{"type":"Point","coordinates":[35.188038300805637,32.264494483986034]},"properties":{"OBJECTID":10,"Name":"Shavei Shomron","name_ar":"دير شرف","Type":"checkpoints","Status_Open":"Open","Status_Closed":"Closed"}},{"type":"Feature","id":11,"geometry":{"type":"Point","coordinates":[35.162778000578307,32.102777999952345]},"properties":{"OBJECTID":11,"Name":"Salfit Ariel gate","name_ar":"المدخل الشمالي لسلفيت","Type":"Road Block","Status_Open":"Open","Status_Closed":"Closed"}},{"type":"Feature","id":12,"geometry":{"type":"Point","coordinates":[35.2298260431158,31.903619187866628]},"properties":{"OBJECTID":12,"Name":"Al Bireh - Psagot Road Gate 2","name_ar":"عيون الحرامية","Type":"Road Block","Status_Open":"Open","Status_Closed":"Closed"}},{"type":"Feature","id":13,"geometry":{"type":"Point","coordinates":[35.201708798219151,32.121277308352603]},"properties":{"OBJECTID":13,"Name":"505 Marda Jamma'in 2","name_ar":"مردا الغربية","Type":"Road Block","Status_Open":"Open","Status_Closed":"Closed"}},{"type":"Feature","id":14,"geometry":{"type":"Point","coordinates":[35.182605855451072,32.11242846481975]},"properties":{"OBJECTID":14,"Name":"505 Marda 2","name_ar":"مردا الشرقية","Type":"Road Block","Status_Open":"Open","Status_Closed":"Closed"}},{"type":"Feature","id":15,"geometry":{"type":"Point","coordinates":[35.163944999619041,32.110088999758162]},"properties":{"OBJECTID":15,"Name":"505 Kifl Haris entrance ","name_ar":"كفل حارس","Type":"Road Block","Status_Open":"Open","Status_Closed":"Closed"}},{"type":"Feature","id":16,"geometry":{"type":"Point","coordinates":[35.133653798064053,32.113013984922823]},"properties":{"OBJECTID":16,"Name":"Haris Gate - West","name_ar":"حارس","Type":"Road Block","Status_Open":"Open","Status_Closed":"Closed"}},{"type":"Feature","id":17,"geometry":{"type":"Point","coordinates":[35.242009954336808,32.117143660381998]},"properties":{"OBJECTID":17,"Name":"Yasuf East","name_ar":"مدخل ياسوف","Type":"Road Block","Status_Open":"Open","Status_Closed":"Closed"}},{"type":"Feature","id":18,"geometry":{"type":"Point","coordinates":[35.27723700026683,31.78907599997715]},"properties":{"OBJECTID":18,"Name":"Za'ayyem Gate","name_ar":"الزعيم","Type":"Road Block","Status_Open":"Open","Status_Closed":"Closed"}},{"type":"Feature","id":19,"geometry":{"type":"Point","coordinates":[35.039407729935455,32.038240662147828]},"properties":{"OBJECTID":19,"Name":"Al Lubban al Gharbi-465","name_ar":"مدخل اللبن الشرقية","Type":"Road Block","Status_Open":"Open","Status_Closed":"Closed"}},{"type":"Feature","id":20,"geometry":{"type":"Point","coordinates":[35.272472044174691,32.027164720456256]},"properties":{"OBJECTID":20,"Name":"Sinjil Main Entrance Rd Gate ","name_ar":"بوابة ترمسعيا","Type":"Road Block","Status_Open":"Open","Status_Closed":"Closed"}},{"type":"Feature","id":21,"geometry":{"type":"Point","coordinates":[35.213697530711336,32.539474994359573]},"properties":{"OBJECTID":21,"Name":"Salem DCL gate","name_ar":"جنين-سالم","Type":"Road Block","Status_Open":"Open","Status_Closed":"Closed"}},{"type":"Feature","id":22,"geometry":{"type":"Point","coordinates":[35.282675587718991,32.179528111601947]},"properties":{"OBJECTID":22,"Name":"'Awarta commercial","name_ar":"عورتا","Type":"Road Block","Status_Open":"Open","Status_Closed":"Closed"}},{"type":"Feature","id":23,"geometry":{"type":"Point","coordinates":[35.223369620742751,31.904772985271396]},"properties":{"OBJECTID":23,"Name":"Al Bireh - Psagot Road Gate","name_ar":"المدخل الشمالي لمدينة البيرة","Type":"Road Block","Status_Open":"Open","Status_Closed":"Closed"}},{"type":"Feature","id":24,"geometry":{"type":"Point","coordinates":[35.275168344419832,31.820622687157734]},"properties":{"OBJECTID":24,"Name":"Anata NE road gate ","name_ar":"عناتا","Type":"Road Block","Status_Open":"Open","Status_Closed":"Closed"}},{"type":"Feature","id":25,"geometry":{"type":"Point","coordinates":[35.24777672742178,32.192814503275706]},"properties":{"OBJECTID":25,"Name":"Burin- Brakha","name_ar":"بوابة بورين","Type":"Road Block","Status_Open":"Open","Status_Closed":"Closed"}},{"type":"Feature","id":26,"geometry":{"type":"Point","coordinates":[35.112780527853872,32.093838528400518]},"properties":{"OBJECTID":26,"Name":"Bruqin - Road 4765","name_ar":"مدخل بروقين","Type":"Road Block","Status_Open":"Open","Status_Closed":"Closed"}},{"type":"Feature","id":27,"geometry":{"type":"Point","coordinates":[35.054173171077657,31.562545393009007]},"properties":{"OBJECTID":27,"Name":"Farsh al Hawa/35 RG","name_ar":"فرش الهوى","Type":"Road Block","Status_Open":"Open","Status_Closed":"Closed"}},{"type":"Feature","id":28,"geometry":{"type":"Point","coordinates":[35.108910016900339,31.678591375054687]},"properties":{"OBJECTID":28,"Name":"Nahhalin (Ein Fares)/RG 1","name_ar":"النشاش","Type":"Road Block","Status_Open":"Open","Status_Closed":"Closed"}},{"type":"Feature","id":29,"geometry":{"type":"Point","coordinates":[35.167150000729734,31.733770000242263]},"properties":{"OBJECTID":29,"Name":"Krimzan RG","name_ar":"كرمة","Type":"Road Block","Status_Open":"Open","Status_Closed":"Closed"}},{"type":"Feature","id":30,"geometry":{"type":"Point","coordinates":[35.060882932716908,32.02821408694188]},"properties":{"OBJECTID":30,"Name":"Abud Roadblock","name_ar":"بوابة عابود ","Type":"Road Block","Status_Open":"Open","Status_Closed":"Closed"}},{"type":"Feature","id":31,"geometry":{"type":"Point","coordinates":[35.261756913902097,32.163707588574368]},"properties":{"OBJECTID":31,"Name":"Yitzhar-Jit","name_ar":"يتسهار","Type":"partial checkpoint","Status_Open":"Open","Status_Closed":"Closed"}},{"type":"Feature","id":32,"geometry":{"type":"Point","coordinates":[35.135781000368887,32.290193999979003]},"properties":{"OBJECTID":32,"Name":"Enav CP","name_ar":"عنبتا","Type":"partial checkpoint","Status_Open":"Open","Status_Closed":"Closed"}},{"type":"Feature","id":33,"geometry":{"type":"Point","coordinates":[35.177719923294774,32.215911101038806]},"properties":{"OBJECTID":33,"Name":"Sarra - Jit","name_ar":"حاجز صرة","Type":"partial checkpoint","Status_Open":"Open","Status_Closed":"Closed"}},{"type":"Feature","id":34,"geometry":{"type":"Point","coordinates":[35.273422000515623,32.177657000038629]},"properties":{"OBJECTID":34,"Name":"Huwwara","name_ar":"حوارة البلد","Type":"partial checkpoint","Status_Open":"Open","Status_Closed":"Closed"}},{"type":"Feature","id":35,"geometry":{"type":"Point","coordinates":[35.20980999967297,32.122959999490433]},"properties":{"OBJECTID":35,"Name":"505 Jamma'in","name_ar":"بوابة جماعين","Type":"earthmound","Status_Open":"Open","Status_Closed":"Closed"}},{"type":"Feature","id":36,"geometry":{"type":"Point","coordinates":[35.200456000233245,31.982808999830027]},"properties":{"OBJECTID":36,"Name":"'Atara","name_ar":"بوابات عطارة البلد","Type":"partial checkpoint","Status_Open":"Open","Status_Closed":"Closed"}},{"type":"Feature","id":37,"geometry":{"type":"Point","coordinates":[35.255760000014185,31.854120000403991]},"properties":{"OBJECTID":37,"Name":"Jaba' ","name_ar":"جبع","Type":"partial checkpoint","Status_Open":"Open","Status_Closed":"Closed"}},{"type":"Feature","id":38,"geometry":{"type":"Point","coordinates":[35.203190888496437,31.639857724507525]},"properties":{"OBJECTID":38,"Name":"Tuqu' Western Entrance PCP","name_ar":"دورا تقوع","Type":"partial checkpoint","Status_Open":"Open","Status_Closed":"Closed"}},{"type":"Feature","id":39,"geometry":{"type":"Point","coordinates":[35.13184599959753,31.624292000338649]},"properties":{"OBJECTID":39,"Name":"Al 'Arrub Camp PCP","name_ar":"بوابات العروب","Type":"partial checkpoint","Status_Open":"Open","Status_Closed":"Closed"}},{"type":"Feature","id":40,"geometry":{"type":"Point","coordinates":[35.121150456196723,31.586088929699837]},"properties":{"OBJECTID":40,"Name":"Sa'ir PCP","name_ar":"سعير","Type":"partial checkpoint","Status_Open":"Open","Status_Closed":"Closed"}},{"type":"Feature","id":41,"geometry":{"type":"Point","coordinates":[35.108519047944341,31.599599864117884]},"properties":{"OBJECTID":41,"Name":"Halhul (Al Hawawer)","name_ar":"جسر حلحول","Type":"partial checkpoint","Status_Open":"Open","Status_Closed":"Closed"}},{"type":"Feature","id":42,"geometry":{"type":"Point","coordinates":[35.171764387603162,32.26369647338224]},"properties":{"OBJECTID":42,"Name":"At Tanib - Deir Sharaf","name_ar":"دوار الطنيب","Type":"partial checkpoint","Status_Open":"Open","Status_Closed":"Closed"}},{"type":"Feature","id":43,"geometry":{"type":"Point","coordinates":[34.982081852600565,31.572169062782251]},"properties":{"OBJECTID":43,"Name":"Idhna Entrance PCP","name_ar":"بوابة اذنا","Type":"partial checkpoint","Status_Open":"Open","Status_Closed":"Closed"}},{"type":"Feature","id":44,"geometry":{"type":"Point","coordinates":[35.055125883345063,31.486352644342983]},"properties":{"OBJECTID":44,"Name":"Dura PCP","name_ar":"بوابة دورا","Type":"partial checkpoint","Status_Open":"Open","Status_Closed":"Closed"}},{"type":"Feature","id":45,"geometry":{"type":"Point","coordinates":[35.019737882214308,31.444288557167525]},"properties":{"OBJECTID":45,"Name":"Adh Dhahiriya PCP","name_ar":"بوابة الظاهرية","Type":"partial checkpoint","Status_Open":"Open","Status_Closed":"Closed"}},{"type":"Feature","id":46,"geometry":{"type":"Point","coordinates":[35.160176422887346,31.685951866185494]},"properties":{"OBJECTID":46,"Name":"Bethlehem Main Entrance PCP","name_ar":"عش الغراب","Type":"partial checkpoint","Status_Open":"Open","Status_Closed":"Closed"}},{"type":"Feature","id":47,"geometry":{"type":"Point","coordinates":[35.177864738518444,31.715952115560377]},"properties":{"OBJECTID":47,"Name":"Beit Jala/DCL PCP","name_ar":"جورة الشمعة","Type":"partial checkpoint","Status_Open":"Open","Status_Closed":"Closed"}},{"type":"Feature","id":48,"geometry":{"type":"Point","coordinates":[35.118061242210672,31.500877928917401]},"properties":{"OBJECTID":48,"Name":"Al Fahs (Hebron) PCP ","name_ar":"الفحص","Type":"partial checkpoint","Status_Open":"Open","Status_Closed":"Closed"}},{"type":"Feature","id":49,"geometry":{"type":"Point","coordinates":[35.243319202010134,31.795488262552972]},"properties":{"OBJECTID":49,"Name":"Al 'Isawiya Rd Block","name_ar":"العيزرية","Type":"Road Block","Status_Open":"Open","Status_Closed":"Closed"}},{"type":"Feature","id":50,"geometry":{"type":"Point","coordinates":[35.168037094650472,32.265824296788033]},"properties":{"OBJECTID":50,"Name":"Al Junidi ","name_ar":"عورتا","Type":"partial checkpoint","Status_Open":"Open","Status_Closed":"Closed"}},{"type":"Feature","id":51,"geometry":{"type":"Point","coordinates":[34.996427843956369,32.188065130664263]},"properties":{"OBJECTID":51,"Name":"Qalqilia main entrance","name_ar":"مدخل قلقيلية","Type":"partial checkpoint","Status_Open":"Open","Status_Closed":"Closed"}},{"type":"Feature","id":52,"geometry":{"type":"Point","coordinates":[35.175731974049,32.306191656083499]},"properties":{"OBJECTID":52,"Name":"Bizzariya","name_ar":"بزاريا","Type":"partial checkpoint","Status_Open":"Open","Status_Closed":"Closed"}},{"type":"Feature","id":53,"geometry":{"type":"Point","coordinates":[35.109639325839751,32.090098606487366]},"properties":{"OBJECTID":53,"Name":"Bruqin","name_ar":"بوابة بورين","Type":"Road Block","Status_Open":"Open","Status_Closed":"Closed"}},{"type":"Feature","id":54,"geometry":{"type":"Point","coordinates":[35.139792999949954,32.14141299953544]},"properties":{"OBJECTID":54,"Name":"Deir Istiya - dirt road to wadi Qana road","name_ar":"واد قانا","Type":"Road Block","Status_Open":"Open","Status_Closed":"Closed"}},{"type":"Feature","id":55,"geometry":{"type":"Point","coordinates":[35.157695626576285,32.207619426573139]},"properties":{"OBJECTID":55,"Name":"Kedumim circle-PcP","name_ar":"مدخل الفندق","Type":"partial checkpoint","Status_Open":"Open","Status_Closed":"Closed"}},{"type":"Feature","id":56,"geometry":{"type":"Point","coordinates":[35.215900260141808,31.624112495188317]},"properties":{"OBJECTID":56,"Name":"Al Maniya  PCP","name_ar":"المنشية","Type":"partial checkpoint","Status_Open":"Open","Status_Closed":"Closed"}},{"type":"Feature","id":57,"geometry":{"type":"Point","coordinates":[35.157534610122489,31.704614921389332]},"properties":{"OBJECTID":57,"Name":"Al Khadr West PCP","name_ar":"النشاش","Type":"partial checkpoint","Status_Open":"Open","Status_Closed":"Closed"}},{"type":"Feature","id":58,"geometry":{"type":"Point","coordinates":[35.162602447114018,32.209317248361309]},"properties":{"OBJECTID":58,"Name":"Jit south west/Kedumim south","name_ar":"مفترق جيت","Type":"partial checkpoint","Status_Open":"Open","Status_Closed":"Closed"}},{"type":"Feature","id":59,"geometry":{"type":"Point","coordinates":[35.264505351904411,32.087681342074056]},"properties":{"OBJECTID":59,"Name":"As sawyeh entr","name_ar":"مدخل الساوية","Type":"partial checkpoint","Status_Open":"Open","Status_Closed":"Closed"}},{"type":"Feature","id":60,"geometry":{"type":"Point","coordinates":[35.17155823612989,32.11049927765427]},"properties":{"OBJECTID":60,"Name":"Salfit-Ariel North","name_ar":"المدخل الشمالي لسلفيت","Type":"Road Block","Status_Open":"Open","Status_Closed":"Closed"}},{"type":"Feature","id":61,"geometry":{"type":"Point","coordinates":[35.26526342671022,32.086529836256446]},"properties":{"OBJECTID":61,"Name":"Yatma","name_ar":"يتما","Type":"partial checkpoint","Status_Open":"Open","Status_Closed":"Closed"}},{"type":"Feature","id":62,"geometry":{"type":"Point","coordinates":[35.13615965870369,31.478868966292271]},"properties":{"OBJECTID":62,"Name":"Zif/RD 356 EM (2)","name_ar":"زيف","Type":"earthmound","Status_Open":"Open","Status_Closed":"Closed"}},{"type":"Feature","id":63,"geometry":{"type":"Point","coordinates":[35.417166766821225,31.925092566614033]},"properties":{"OBJECTID":63,"Name":"Al Mu'arrajat East RB","name_ar":"مداخل ومخارج اريحا","Type":"Road Block","Status_Open":"Open","Status_Closed":"Closed"}},{"type":"Feature","id":64,"geometry":{"type":"Point","coordinates":[35.407189446266734,31.772922245449049]},"properties":{"OBJECTID":64,"Name":"An Nabi Musa new road block","name_ar":"النبي يونس ","Type":"Road Block","Status_Open":"Open","Status_Closed":"Closed"}},{"type":"Feature","id":65,"geometry":{"type":"Point","coordinates":[35.349045283335848,32.029987968911826]},"properties":{"OBJECTID":65,"Name":"Al Mughayyir North East EM ","name_ar":"حاجز الحمر","Type":"earthmound","Status_Open":"Open","Status_Closed":"Closed"}},{"type":"Feature","id":66,"geometry":{"type":"Point","coordinates":[35.128710420884538,32.013676445966098]},"properties":{"OBJECTID":66,"Name":"An Nabi Saleh PCP","name_ar":"بوابة النبي صالح","Type":"partial checkpoint","Status_Open":"Open","Status_Closed":"Closed"}},{"type":"Feature","id":67,"geometry":{"type":"Point","coordinates":[35.22800000046135,31.9889546998503]},"properties":{"OBJECTID":67,"Name":"Ein Siniya","name_ar":"عين سينيا","Type":"partial checkpoint","Status_Open":"Open","Status_Closed":"Closed"}},{"type":"Feature","id":68,"geometry":{"type":"Point","coordinates":[35.185445440027394,32.007780695915756]},"properties":{"OBJECTID":68,"Name":" Rawabi Roundabout Checkpoint","name_ar":"دوار روابي","Type":"checkpoints","Status_Open":"Open","Status_Closed":"Closed"}},{"type":"Feature","id":69,"geometry":{"type":"Point","coordinates":[35.262156682937338,32.222621754571342]},"properties":{"OBJECTID":69,"Name":" Al-Murabba'a Military Checkpoint","name_ar":"المربعة","Type":"checkpoints","Status_Open":"Open","Status_Closed":"Closed"}}]
}